GLOBALSTAR M084         
1 38040U 11080A   25132.53990083 -.00000074  00000+0  16553-3 0  9999
2 38040  51.9982 156.9973 0000215 335.9993 185.6918 12.62266084618167
GLOBALSTAR M080         
1 38041U 11080B   25132.83007995 -.00000075  00000+0  15784-3 0  9990
2 38041  52.0033 157.6927 0000595  92.7770  78.2825 12.62262897618461
GLOBALSTAR M082         
1 38042U 11080C   25132.36892120 -.00000110  00000+0 -37213-4 0  9994
2 38042  52.0053 114.5519 0000604  87.2663  77.4142 12.62266190618973
GLOBALSTAR M092         
1 38043U 11080D   25132.73491622 -.00000065  00000+0  21548-3 0  9999
2 38043  52.0071 203.8146 0000318 126.4060  22.4476 12.62264298617685
GLOBALSTAR M090         
1 38044U 11080E   25132.63431744 -.00000117  00000+0 -72278-4 0  9994
2 38044  51.9867 107.5971 0000380  79.8817  91.6418 12.62270202619120
GLOBALSTAR M086         
1 38045U 11080F   25132.86764851 -.00000103  00000+0  37693-5 0  9995
2 38045  51.9879 107.4345 0000619 243.5195 149.2486 12.62270791619209
GLOBALSTAR M097         
1 39072U 13005A   25132.09516796 -.00000098  00000+0  34366-4 0  9999
2 39072  52.0071  24.2979 0000634  93.8886 266.2053 12.62271885566256
GLOBALSTAR M093         
1 39073U 13005B   25132.86047662 -.00000089  00000+0  80181-4 0  9992
2 39073  51.9837  15.3271 0000721  93.3149 266.7800 12.62264474566425
